[{"OBJECT_NAME":"STARLINK-35775","OBJECT_ID":"2025-294J","EPOCH":"2026-03-09T23:07:54.185376","MEAN_MOTION":15.27589358,"ECCENTRICITY":9.529e-5,"INCLINATION":43.0036,"RA_OF_ASC_NODE":36.3117,"ARG_OF_PERICENTER":262.1519,"MEAN_ANOMALY":97.9225,"EPHEMERIS_TYPE":0,"CLASSIFICATION_TYPE":"U","NORAD_CAT_ID":67038,"ELEMENT_SET_NO":999,"REV_AT_EPOCH":1485,"BSTAR":0.00096208644,"MEAN_MOTION_DOT":0.00026314,"MEAN_MOTION_DDOT":0},{"OBJECT_NAME":"MAGION 3","OBJECT_ID":"1991-086E","EPOCH":"2026-03-09T13:21:19.926432","MEAN_MOTION":12.20904134,"ECCENTRICITY":0.14519361,"INCLINATION":82.5296,"RA_OF_ASC_NODE":245.0216,"ARG_OF_PERICENTER":318.5653,"MEAN_ANOMALY":31.3694,"EPHEMERIS_TYPE":0,"CLASSIFICATION_TYPE":"U","NORAD_CAT_ID":21835,"ELEMENT_SET_NO":999,"REV_AT_EPOCH":50141,"BSTAR":0.00027550962,"MEAN_MOTION_DOT":1.51e-5,"MEAN_MOTION_DDOT":0}]
